{
  "norad_id": 68746,
  "name": "STARLINK-37347",
  "history": [
    {
      "epoch": "2026-04-23T11:31:15.091392Z",
      "apogee_km": 317.78610894786834,
      "perigee_km": 314.39989964249526,
      "latitude_deg": -8.013428807121538e-06,
      "longitude_deg": -48.721345903784254,
      "height_km": 320.87607228976634,
      "semi_major_axis_km": 6694.230004295181,
      "eccentricity": 0.00025292,
      "inclination_deg": 97.2876,
      "raan_deg": 335.6182,
      "arg_perigee_deg": 199.0861,
      "mean_anomaly_deg": 161.0315,
      "mean_motion_rev_day": 15.85082302
    }
  ]
}