STARLINK-37347          
1 68746U 26082U   26113.48003578  .00063338  00000+0  26963-3 0  9998
2 68746  97.2876 335.6182 0002529 199.0861 161.0315 15.85082302  1172
